INTELSAT 23 (IS-23)     
1 38867U 12057A   26195.76244642 -.00000293  00000+0  00000+0 0  9998
2 38867   0.0148  33.7286 0000361 157.7686 322.6165  1.00273521 50232
FM-6                    
1 39360U 13058A   26194.96565503 -.00000021  00000+0  00000+0 0  9991
2 39360   0.0142  33.4803 0001390 144.8411 344.7900  1.00270909 46349
INTELSAT 30 (IS-30)     
1 40271U 14062A   26194.82722561 -.00000156  00000+0  00000+0 0  9993
2 40271   0.0159  46.9890 0001468 332.6212 114.8422  1.00270855  7068
DIRECTV 14              
1 40333U 14078B   26195.61066678 -.00000133  00000+0  00000+0 0  9992
2 40333   0.0123  45.1480 0000526 293.7964  74.1203  1.00269916 42317
DIRECTV 15              
1 40663U 15026A   26195.68123920 -.00000111  00000+0  00000+0 0  9999
2 40663   0.0176  71.4979 0000099 242.5429 120.8693  1.00271323 40730
SKY MEXICO-1            
1 40664U 15026B   26195.54342035 -.00000242  00000+0  00000+0 0  9990
2 40664   0.0172  32.6899 0002349 103.2479 273.2909  1.00270202 40722
INTELSAT 34 (IS-34)     
1 40874U 15039A   26195.26286936 -.00000292  00000+0  00000+0 0  9998
2 40874   0.0110 352.6276 0000554   9.3806 329.2648  1.00271009 39903
INTELSAT 31 (IS-31)     
1 41581U 16035A   26194.89862426 -.00000156  00000+0  00000+0 0  9992
2 41581   0.0229 276.7908 0001186  13.0074 230.4271  1.00270917 36953
INTELSAT 36 (IS-36)     
1 41747U 16053A   26195.93219237 -.00000033  00000+0  00000+0 0  9992
2 41747   0.0108  29.2174 0002406 310.2810 357.3528  1.00270305 36231
INTELSAT 32E (IS-32E)   
1 41945U 17007B   26195.76435310  .00000000  00000+0  00000+0 0  9998
2 41945   0.0230  50.3038 0000277 277.5143 196.7998  1.00266622 34500
INTELSAT 35E (IS-35E)   
1 42818U 17041A   26195.76608645  .00000000  00000+0  00000+0 0  9999
2 42818   0.0257  55.5687 0001617  55.6099  62.7373  1.00267005 33098
INTELSAT 37E (IS-37E)   
1 42950U 17059A   26195.76937979 -.00000150  00000+0  00000+0 0  9997
2 42950   0.0179  40.8260 0002572  82.7055  68.0542  1.00269764 32344
AZERSPACE 2 (IS-38)     
1 43632U 18074A   26195.85911229  .00000000  00000+0  00000+0 0  9996
2 43632   0.0269  55.5887 0001294  67.9093 163.6155  1.00270157 28724
HORIZONS-3E             
1 43633U 18074B   26194.64002854 -.00000035  00000+0  00000+0 0  9997
2 43633   0.0498 224.9289 0000940  53.6947  52.2963  1.00270118 28608
AT&T T-16               
1 44333U 19034A   26195.82414432 -.00000123  00000+0  00000+0 0  9990
2 44333   0.0157  70.7114 0000616 248.2150 169.5701  1.00268430 25917
INTELSAT 39 (IS-39)     
1 44476U 19049B   26194.92525137  .00000000  00000+0  00000+0 0  9992
2 44476   0.0241  49.4551 0000732 282.1376 355.2527  1.00272225 25392
GALAXY 30 (G-30)        
1 46114U 20056C   26195.74814635  .00000029  00000+0  00000+0 0  9999
2 46114   0.0161  49.1335 0001966  66.2778 321.5171  1.00271630 21563
GALAXY 33 (G-33)        
1 54026U 22128A   26195.74658635  .00000071  00000+0  00000+0 0  9995
2 54026   0.0139  31.8135 0001770  88.6741 307.8857  1.00272050 14013
GALAXY 34 (G-34)        
1 54027U 22128B   26195.67603918  .00000000  00000+0  00000+0 0  9994
2 54027   0.0271  41.8092 0001548  89.7731 275.3412  1.00276000 14181
GALAXY 31 (G-31)        
1 54243U 22153A   26195.67768584  .00000005  00000+0  00000+0 0  9998
2 54243   0.0158  70.0542 0000961  49.7154 295.7132  1.00271000  7409
GALAXY 32 (G-32)        
1 54244U 22153B   26195.82622432 -.00000182  00000+0  00000+0 0  9994
2 54244   0.0085  43.9656 0001402   4.1212  91.0221  1.00269793 13426
GALAXY 35 (G-35)        
1 54741U 22170A   26195.82579098 -.00000170  00000+0  00000+0 0  9991
2 54741   0.0203  75.4606 0001917  41.4513  19.9305  1.00269991 13178
GALAXY 36 (G-36)        
1 54742U 22170B   26195.82648433 -.00000194  00000+0  00000+0 0  9998
2 54742   0.0065 114.0289 0002388 346.8077  40.3734  1.00270252 13055
GALAXY 37 (G-37)        
1 57493U 23112A   26194.96357502  .00000042  00000+0  00000+0 0  9990
2 57493   0.0218  73.5270 0001739  44.1230  34.0616  1.00271325 10810
